H1 CPF  1  DLR 2021 06 19 10  6702 technosat            
H2  1704205 6203    42829 2021 06 19 00 00 00 2021 06 26 00 00 00    60 1 1  0 0 0
H9
10 0 59386  79200.000000  0       6606001.206      -2200310.771       -299048.528
10 0 59386  79260.000000  0       6546103.297      -2274517.188       -747922.872
10 0 59386  79320.000000  0       6457962.010      -2338472.208      -1193616.431
10 0 59386  79380.000000  0       6342056.791      -2391666.311      -1634236.632
10 0 59386  79440.000000  0       6198989.281      -2433640.900      -2067914.941
10 0 59386  79500.000000  0       6029479.906      -2463991.168      -2492814.964
10 0 59386  79560.000000  0       5834363.919      -2482368.696      -2907140.366
10 0 59386  79620.000000  0       5614586.910      -2488483.745      -3309142.512
10 0 59386  79680.000000  0       5371199.887      -2482107.261      -3697127.837
10 0 59386  79740.000000  0       5105353.893      -2463072.557      -4069464.945
10 0 59386  79800.000000  0       4818294.191      -2431276.673      -4424591.381
10 0 59386  79860.000000  0       4511354.045      -2386681.419      -4761020.033
10 0 59386  79920.000000  0       4185948.135      -2329314.069      -5077345.124
10 0 59386  79980.000000  0       3843565.690      -2259267.719      -5372247.744
10 0 59386  80040.000000  0       3485763.416      -2176701.329      -5644500.948
10 0 59386  80100.000000  0       3114158.255      -2081839.441      -5892974.447
10 0 59386  80160.000000  0       2730420.012      -1974971.584      -6116638.906
10 0 59386  80220.000000  0       2336263.802      -1856451.387      -6314569.892
10 0 59386  80280.000000  0       1933442.276      -1726695.345      -6485951.325
10 0 59386  80340.000000  0       1523737.815      -1586181.260      -6630078.401
10 0 59386  80400.000000  0       1108954.721      -1435446.442      -6746360.039
10 0 59386  80460.000000  0        690911.450      -1275085.662      -6834320.953
10 0 59386  80520.000000  0        271432.776      -1105748.789      -6893603.323
10 0 59386  80580.000000  0       -147657.967       -928138.154      -6923967.911
10 0 59386  80640.000000  0       -564546.498       -743005.721      -6925294.850
10 0 59386  80700.000000  0       -977435.234       -551149.982      -6897584.046
10 0 59386  80760.000000  0      -1384550.827       -353412.570      -6840955.048
10 0 59386  80820.000000  0      -1784151.521       -150674.659      -6755646.487
10 0 59386  80880.000000  0      -2174534.348         56146.815      -6642015.101
10 0 59386  80940.000000  0      -2554042.122        266103.146      -6500534.355
10 0 59386  81000.000000  0      -2921070.243        478218.039      -6331792.685
10 0 59386  81060.000000  0      -3274073.321        691492.001      -6136491.334
10 0 59386  81120.000000  0      -3611571.620        904906.870      -5915441.772
10 0 59386  81180.000000  0      -3932157.258       1117430.489      -5669562.614
10 0 59386  81240.000000  0      -4234500.049       1328021.500      -5399876.157
10 0 59386  81300.000000  0      -4517353.096       1535634.321      -5107504.583
10 0 59386  81360.000000  0      -4779558.123       1739224.255      -4793665.645
10 0 59386  81420.000000  0      -5020050.365       1937752.627      -4459667.884
10 0 59386  81480.000000  0      -5237863.053       2130191.927      -4106905.495
10 0 59386  81540.000000  0      -5432131.527       2315530.987      -3736852.852
10 0 59386  81600.000000  0      -5602096.951       2492780.177      -3351058.650
10 0 59386  81660.000000  0      -5747109.576       2660976.571      -2951139.671
10 0 59386  81720.000000  0      -5866631.544       2819189.050      -2538774.196
10 0 59386  81780.000000  0      -5960239.175       2966523.334      -2115695.110
10 0 59386  81840.000000  0      -6027624.764       3102126.909      -1683682.701
10 0 59386  81900.000000  0      -6068597.812       3225193.791      -1244557.172
10 0 59386  81960.000000  0      -6083085.694       3334969.118       -800170.974
10 0 59386  82020.000000  0      -6071133.854       3430753.547       -352400.917
10 0 59386  82080.000000  0      -6032905.389       3511907.365         96859.909
10 0 59386  82140.000000  0      -5968680.082       3577854.372        545710.337
10 0 59386  82200.000000  0      -5878852.736       3628085.436        992249.385
10 0 59386  82260.000000  0      -5763931.067       3662161.767       1434584.424
10 0 59386  82320.000000  0      -5624533.048       3679717.866       1870839.484
10 0 59386  82380.000000  0      -5461383.629       3680464.068       2299163.359
10 0 59386  82440.000000  0      -5275311.113       3664188.757       2717737.617
10 0 59386  82500.000000  0      -5067242.978       3630760.189       3124784.584
10 0 59386  82560.000000  0      -4838201.188       3580127.912       3518575.057
10 0 59386  82620.000000  0      -4589297.106       3512323.779       3897435.821
10 0 59386  82680.000000  0      -4321725.940       3427462.512       4259756.858
10 0 59386  82740.000000  0      -4036760.921       3325741.867       4603998.182
10 0 59386  82800.000000  0      -3735747.201       3207442.460       4928696.496
10 0 59386  82860.000000  0      -3420095.318       3072927.159       5232471.485
10 0 59386  82920.000000  0      -3091274.397       2922640.058       5514031.672
10 0 59386  82980.000000  0      -2750805.165       2757105.019       5772179.872
10 0 59386  83040.000000  0      -2400252.790       2576923.830       6005818.229
10 0 59386  83100.000000  0      -2041219.560       2382774.004       6213952.855
10 0 59386  83160.000000  0      -1675337.371       2175406.153       6395697.969
10 0 59386  83220.000000  0      -1304260.196       1955641.046       6550279.458
10 0 59386  83280.000000  0       -929656.633       1724366.343       6677038.081
10 0 59386  83340.000000  0       -553202.383       1482532.952       6775432.249
10 0 59386  83400.000000  0       -176572.710       1231151.093       6845040.302
10 0 59386  83460.000000  0        198565.068        971286.063       6885562.294
10 0 59386  83520.000000  0        570558.996        704053.709       6896821.268
10 0 59386  83580.000000  0        937779.776        430615.654       6878764.053
10 0 59386  83640.000000  0       1298627.950        152174.244       6831461.591
10 0 59386  83700.000000  0       1651540.917       -130032.732       6755108.771
10 0 59386  83760.000000  0       1994999.791       -414737.595       6650023.765
10 0 59386  83820.000000  0       2327536.001       -700648.509       6516646.811
10 0 59386  83880.000000  0       2647737.709       -986455.325       6355538.555
10 0 59386  83940.000000  0       2954255.981      -1270835.619       6167377.894
10 0 59386  84000.000000  0       3245810.678      -1552460.909       5952959.290
10 0 59386  84060.000000  0       3521196.001      -1830002.946       5713189.524
10 0 59386  84120.000000  0       3779285.669      -2102140.027       5449083.987
10 0 59386  84180.000000  0       4019037.734      -2367563.364       5161762.528
10 0 59386  84240.000000  0       4239499.027      -2624983.503       4852444.861
10 0 59386  84300.000000  0       4439809.201      -2873136.751       4522445.477
10 0 59386  84360.000000  0       4619204.333      -3110791.530       4173168.098
10 0 59386  84420.000000  0       4777020.074      -3336754.636       3806099.693
10 0 59386  84480.000000  0       4912694.335      -3549877.370       3422804.077
10 0 59386  84540.000000  0       5025769.469      -3749061.480       3024915.100
10 0 59386  84600.000000  0       5115893.878      -3933264.897       2614129.482
10 0 59386  84660.000000  0       5182823.081      -4101507.231       2192199.377
10 0 59386  84720.000000  0       5226420.264      -4252875.033       1760924.684
10 0 59386  84780.000000  0       5246656.318      -4386526.734       1322145.081
10 0 59386  84840.000000  0       5243609.322      -4501697.217        877731.868
10 0 59386  84900.000000  0       5217463.506      -4597702.069        429579.697
10 0 59386  84960.000000  0       5168507.650      -4673941.444        -20401.866
10 0 59386  85020.000000  0       5097132.971      -4729903.457       -470296.825
10 0 59386  85080.000000  0       5003830.526      -4765167.131       -918191.245
10 0 59386  85140.000000  0       4889188.080      -4779404.919      -1362181.725
10 0 59386  85200.000000  0       4753886.511      -4772384.733      -1800383.747
10 0 59386  85260.000000  0       4598695.814      -4743971.485      -2230939.914
10 0 59386  85320.000000  0       4424470.660      -4694128.138      -2652028.005
10 0 59386  85380.000000  0       4232145.581      -4622916.304      -3061868.801
10 0 59386  85440.000000  0       4022729.815      -4530496.331      -3458733.679
10 0 59386  85500.000000  0       3797301.871      -4417126.887      -3840951.894
10 0 59386  85560.000000  0       3557003.806      -4283164.090      -4206917.552
10 0 59386  85620.000000  0       3303035.252      -4129060.170      -4555096.229
10 0 59386  85680.000000  0       3036647.227      -3955361.675      -4884031.193
10 0 59386  85740.000000  0       2759135.812      -3762707.253      -5192349.194
10 0 59386  85800.000000  0       2471835.725      -3551825.033      -5478765.821
10 0 59386  85860.000000  0       2176113.892      -3323529.647      -5742090.444
10 0 59386  85920.000000  0       1873362.924      -3078718.913      -5981230.804
10 0 59386  85980.000000  0       1564994.563      -2818370.152      -6195197.174
10 0 59386  86040.000000  0       1252433.100      -2543536.131      -6383106.115
10 0 59386  86100.000000  0        937108.825      -2255340.634      -6544183.717
10 0 59386  86160.000000  0        620451.586      -1954973.764      -6677768.363
10 0 59386  86220.000000  0        303884.435      -1643686.990      -6783313.039
10 0 59386  86280.000000  0        -11182.597      -1322787.950      -6860387.200
10 0 59386  86340.000000  0       -323358.560       -993635.009      -6908678.203
99
